start=new Date('2023-03-11T00:00:00.000Z').valueOf();
sats=[{"MEAN_ANOMALY":"156.8480","EPOCH":"2023-03-10T22:00:00.999936","GP_ID":"227818591","REF_FRAME":"TEME","PERIOD":"90.817","RCS_SIZE":"LARGE","MEAN_MOTION_DDOT":"0.0000000000000","SITE":"AFETR","CENTER_NAME":"EARTH","COUNTRY_CODE":"US","REV_AT_EPOCH":"130","ARG_OF_PERICENTER":"351.7315","TIME_SYSTEM":"UTC","ECCENTRICITY":"0.00057650","OBJECT_NAME":"STARLINK-5216","OBJECT_TYPE":"PAYLOAD","LAUNCH_DATE":"2022-10-20","MEAN_MOTION_DOT":"0.00201042","BSTAR":"0.00079811000000","CLASSIFICATION_TYPE":"U","MEAN_ELEMENT_THEORY":"SGP4","MEAN_MOTION":"15.85612535","DECAY_DATE":null,"EPHEMERIS_TYPE":"0","APOAPSIS":"318.461","INCLINATION":"53.2068","RA_OF_ASC_NODE":"170.3826","SEMIMAJOR_AXIS":"6692.738","ELEMENT_SET_NO":"999","TLE_LINE1":"1 54057U 22136G   23069.91667824  .00201042  00000-0  79811-3 0  9996","FILE":"3856975","TLE_LINE2":"2 54057  53.2068 170.3826 0005765 351.7315 156.8480 15.85612535  1309","PERIAPSIS":"310.744","NORAD_CAT_ID":"54057","OBJECT_ID":"2022-136G"},{"CLASSIFICATION_TYPE":"U","MEAN_ELEMENT_THEORY":"SGP4","MEAN_MOTION":"15.08848899","DECAY_DATE":null,"EPHEMERIS_TYPE":"0","APOAPSIS":"540.518","INCLINATION":"53.2162","RA_OF_ASC_NODE":"219.8449","SEMIMAJOR_AXIS":"6917.853","ELEMENT_SET_NO":"999","TLE_LINE1":"1 54058U 22136H   23069.67384795  .00004819  00000-0  32060-3 0  9991","FILE":"3856975","TLE_LINE2":"2 54058  53.2162 219.8449 0001156  84.3840 275.7284 15.08848899 21536","PERIAPSIS":"538.918","NORAD_CAT_ID":"54058","OBJECT_ID":"2022-136H","OBJECT_NAME":"STARLINK-5167","OBJECT_TYPE":"PAYLOAD","LAUNCH_DATE":"2022-10-20","MEAN_MOTION_DOT":"0.00004819","BSTAR":"0.00032060000000","MEAN_MOTION_DDOT":"0.0000000000000","SITE":"AFETR","CENTER_NAME":"EARTH","REV_AT_EPOCH":"2153","COUNTRY_CODE":"US","ARG_OF_PERICENTER":"84.3840","TIME_SYSTEM":"UTC","ECCENTRICITY":"0.00011560","MEAN_ANOMALY":"275.7284","EPOCH":"2023-03-10T16:10:20.462880","GP_ID":"227819343","REF_FRAME":"TEME","PERIOD":"95.437","RCS_SIZE":"LARGE"},{"OBJECT_TYPE":"PAYLOAD","LAUNCH_DATE":"2022-10-20","MEAN_MOTION_DOT":"0.00008743","BSTAR":"0.00056670000000","OBJECT_NAME":"STARLINK-5173","TLE_LINE2":"2 54059  53.2181 219.8710 0001394  75.5060 284.6087 15.08842989 21533","TLE_LINE1":"1 54059U 22136J   23069.67752973  .00008743  00000-0  56670-3 0  9992","FILE":"3856975","ELEMENT_SET_NO":"999","NORAD_CAT_ID":"54059","PERIAPSIS":"538.772","OBJECT_ID":"2022-136J","CLASSIFICATION_TYPE":"U","DECAY_DATE":null,"MEAN_MOTION":"15.08842989","MEAN_ELEMENT_THEORY":"SGP4","APOAPSIS":"540.701","EPHEMERIS_TYPE":"0","RA_OF_ASC_NODE":"219.8710","SEMIMAJOR_AXIS":"6917.871","INCLINATION":"53.2181","RCS_SIZE":"LARGE","MEAN_ANOMALY":"284.6087","EPOCH":"2023-03-10T16:15:38.568672","GP_ID":"227820093","PERIOD":"95.437","REF_FRAME":"TEME","REV_AT_EPOCH":"2153","COUNTRY_CODE":"US","ARG_OF_PERICENTER":"75.5060","TIME_SYSTEM":"UTC","ECCENTRICITY":"0.00013940","MEAN_MOTION_DDOT":"0.0000000000000","SITE":"AFETR","CENTER_NAME":"EARTH"},{"EPOCH":"2023-03-10T21:49:36.511104","MEAN_ANOMALY":"273.8495","REF_FRAME":"TEME","PERIOD":"95.439","GP_ID":"227818841","RCS_SIZE":"LARGE","SITE":"AFETR","MEAN_MOTION_DDOT":"0.0000000000000","CENTER_NAME":"EARTH","ARG_OF_PERICENTER":"86.2740","COUNTRY_CODE":"US","REV_AT_EPOCH":"2198","ECCENTRICITY":"0.00021300","TIME_SYSTEM":"UTC","OBJECT_NAME":"STARLINK-5169","LAUNCH_DATE":"2022-10-20","OBJECT_TYPE":"PAYLOAD","BSTAR":"-0.00067552000000","MEAN_MOTION_DOT":"-0.00011016","MEAN_ELEMENT_THEORY":"SGP4","MEAN_MOTION":"15.08816477","DECAY_DATE":null,"CLASSIFICATION_TYPE":"U","INCLINATION":"53.2172","RA_OF_ASC_NODE":"189.2110","SEMIMAJOR_AXIS":"6917.952","EPHEMERIS_TYPE":"0","APOAPSIS":"541.291","PERIAPSIS":"538.344","NORAD_CAT_ID":"54060","TLE_LINE1":"1 54060U 22136K   23069.90945036 -.00011016  00000-0 -67552-3 0  9994","ELEMENT_SET_NO":"999","FILE":"3856975","TLE_LINE2":"2 54060  53.2172 189.2110 0002130  86.2740 273.8495 15.08816477 21987","OBJECT_ID":"2022-136K"},{"EPOCH":"2023-03-10T17:11:55.600800","MEAN_ANOMALY":"259.4462","REF_FRAME":"TEME","PERIOD":"95.437","GP_ID":"227819091","RCS_SIZE":"LARGE","SITE":"AFETR","MEAN_MOTION_DDOT":"0.0000000000000","CENTER_NAME":"EARTH","ARG_OF_PERICENTER":"100.6700","COUNTRY_CODE":"US","REV_AT_EPOCH":"2203","ECCENTRICITY":"0.00015010","TIME_SYSTEM":"UTC","OBJECT_NAME":"STARLINK-5209","LAUNCH_DATE":"2022-10-20","OBJECT_TYPE":"PAYLOAD","BSTAR":"0.00010660000000","MEAN_MOTION_DOT":"0.00001410","MEAN_ELEMENT_THEORY":"SGP4","DECAY_DATE":null,"MEAN_MOTION":"15.08852904","CLASSIFICATION_TYPE":"U","INCLINATION":"53.2201","SEMIMAJOR_AXIS":"6917.841","RA_OF_ASC_NODE":"184.4040","EPHEMERIS_TYPE":"0","APOAPSIS":"540.744","PERIAPSIS":"538.668","NORAD_CAT_ID":"54061","TLE_LINE1":"1 54061U 22136L   23069.71661575  .00001410  00000-0  10660-3 0  9990","ELEMENT_SET_NO":"999","FILE":"3856975","TLE_LINE2":"2 54061  53.2201 184.4040 0001501 100.6700 259.4462 15.08852904 22034","OBJECT_ID":"2022-136L"},{"ECCENTRICITY":"0.00013450","TIME_SYSTEM":"UTC","ARG_OF_PERICENTER":"76.1264","COUNTRY_CODE":"US","REV_AT_EPOCH":"2153","CENTER_NAME":"EARTH","SITE":"AFETR","MEAN_MOTION_DDOT":"0.0000000000000","RCS_SIZE":"LARGE","REF_FRAME":"TEME","PERIOD":"95.437","GP_ID":"227819843","EPOCH":"2023-03-10T16:05:01.712544","MEAN_ANOMALY":"283.9878","OBJECT_ID":"2022-136M","PERIAPSIS":"538.783","NORAD_CAT_ID":"54062","ELEMENT_SET_NO":"999","TLE_LINE1":"1 54062U 22136M   23069.67015871  .00012882  00000-0  82574-3 0  9996","FILE":"3856975","TLE_LINE2":"2 54062  53.2168 219.8243 0001345  76.1264 283.9878 15.08850446 21539","INCLINATION":"53.2168","RA_OF_ASC_NODE":"219.8243","SEMIMAJOR_AXIS":"6917.848","EPHEMERIS_TYPE":"0","APOAPSIS":"540.644","MEAN_ELEMENT_THEORY":"SGP4","MEAN_MOTION":"15.08850446","DECAY_DATE":null,"CLASSIFICATION_TYPE":"U","BSTAR":"0.00082574000000","MEAN_MOTION_DOT":"0.00012882","LAUNCH_DATE":"2022-10-20","OBJECT_TYPE":"PAYLOAD","OBJECT_NAME":"STARLINK-5170"},{"BSTAR":"0.00048553000000","MEAN_MOTION_DOT":"0.00007449","LAUNCH_DATE":"2022-10-20","OBJECT_TYPE":"PAYLOAD","OBJECT_NAME":"STARLINK-5225","OBJECT_ID":"2022-136N","NORAD_CAT_ID":"54063","PERIAPSIS":"538.965","TLE_LINE2":"2 54063  53.2153 220.9910 0001098  89.0045 271.1072 15.08846837 21492","ELEMENT_SET_NO":"999","TLE_LINE1":"1 54063U 22136N   23069.40151791  .00007449  00000-0  48553-3 0  9992","FILE":"3856975","RA_OF_ASC_NODE":"220.9910","SEMIMAJOR_AXIS":"6917.859","INCLINATION":"53.2153","APOAPSIS":"540.484","EPHEMERIS_TYPE":"0","MEAN_MOTION":"15.08846837","DECAY_DATE":null,"MEAN_ELEMENT_THEORY":"SGP4","CLASSIFICATION_TYPE":"U","RCS_SIZE":"LARGE","PERIOD":"95.437","REF_FRAME":"TEME","GP_ID":"227819594","EPOCH":"2023-03-10T09:38:11.147424","MEAN_ANOMALY":"271.1072","ECCENTRICITY":"0.00010980","TIME_SYSTEM":"UTC","ARG_OF_PERICENTER":"89.0045","REV_AT_EPOCH":"2149","COUNTRY_CODE":"US","CENTER_NAME":"EARTH","SITE":"AFETR","MEAN_MOTION_DDOT":"0.0000000000000"},{"OBJECT_NAME":"STARLINK-5172","BSTAR":"-0.04860000000000","MEAN_MOTION_DOT":"-0.00976905","LAUNCH_DATE":"2022-10-20","OBJECT_TYPE":"PAYLOAD","SEMIMAJOR_AXIS":"6884.019","RA_OF_ASC_NODE":"173.8039","INCLINATION":"53.2107","APOAPSIS":"506.852","EPHEMERIS_TYPE":"0","MEAN_MOTION":"15.19986139","DECAY_DATE":null,"MEAN_ELEMENT_THEORY":"SGP4","CLASSIFICATION_TYPE":"U","OBJECT_ID":"2022-136P","NORAD_CAT_ID":"54064","PERIAPSIS":"504.917","TLE_LINE2":"2 54064  53.2107 173.8039 0001406  80.6178 167.6270 15.19986139  1306","ELEMENT_SET_NO":"999","TLE_LINE1":"1 54064U 22136P   23069.91667824 -.00976905  00000-0 -48600-1 0  9993","FILE":"3856975","PERIOD":"94.738","REF_FRAME":"TEME","GP_ID":"227818342","EPOCH":"2023-03-10T22:00:00.999936","MEAN_ANOMALY":"167.6270","RCS_SIZE":"LARGE","CENTER_NAME":"EARTH","SITE":"AFETR","MEAN_MOTION_DDOT":"0.0000000000000","ECCENTRICITY":"0.00014060","TIME_SYSTEM":"UTC","ARG_OF_PERICENTER":"80.6178","COUNTRY_CODE":"US","REV_AT_EPOCH":"130"},{"OBJECT_ID":"2022-136Q","NORAD_CAT_ID":"54065","PERIAPSIS":"537.906","TLE_LINE2":"2 54065  53.2145 220.9466 0002684 103.4139 256.7153 15.08834267 21491","TLE_LINE1":"1 54065U 22136Q   23069.39414741 -.00000545  00000-0 -16123-4 0  9990","ELEMENT_SET_NO":"999","FILE":"3856975","RA_OF_ASC_NODE":"220.9466","SEMIMAJOR_AXIS":"6917.898","INCLINATION":"53.2145","APOAPSIS":"541.620","EPHEMERIS_TYPE":"0","MEAN_MOTION":"15.08834267","DECAY_DATE":null,"MEAN_ELEMENT_THEORY":"SGP4","CLASSIFICATION_TYPE":"U","BSTAR":"-0.00001612300000","MEAN_MOTION_DOT":"-0.00000545","LAUNCH_DATE":"2022-10-20","OBJECT_TYPE":"PAYLOAD","OBJECT_NAME":"STARLINK-5187","ECCENTRICITY":"0.00026840","TIME_SYSTEM":"UTC","ARG_OF_PERICENTER":"103.4139","COUNTRY_CODE":"US","REV_AT_EPOCH":"2149","CENTER_NAME":"EARTH","SITE":"AFETR","MEAN_MOTION_DDOT":"0.0000000000000","RCS_SIZE":"LARGE","PERIOD":"95.438","REF_FRAME":"TEME","GP_ID":"227818592","EPOCH":"2023-03-10T09:27:34.336224","MEAN_ANOMALY":"256.7153"},{"APOAPSIS":"540.443","EPHEMERIS_TYPE":"0","SEMIMAJOR_AXIS":"6917.887","RA_OF_ASC_NODE":"220.9673","INCLINATION":"53.2151","CLASSIFICATION_TYPE":"U","DECAY_DATE":null,"MEAN_MOTION":"15.08837747","MEAN_ELEMENT_THEORY":"SGP4","OBJECT_ID":"2022-136R","TLE_LINE2":"2 54066  53.2151 220.9673 0000999  80.6459 279.4646 15.08837747 21492","TLE_LINE1":"1 54066U 22136R   23069.39782975  .00002532  00000-0  17712-3 0  9998","FILE":"3856975","ELEMENT_SET_NO":"999","NORAD_CAT_ID":"54066","PERIAPSIS":"539.061","OBJECT_NAME":"STARLINK-5151","MEAN_MOTION_DOT":"0.00002532","BSTAR":"0.00017712000000","OBJECT_TYPE":"PAYLOAD","LAUNCH_DATE":"2022-10-20","CENTER_NAME":"EARTH","MEAN_MOTION_DDOT":"0.0000000000000","SITE":"AFETR","TIME_SYSTEM":"UTC","ECCENTRICITY":"0.00009990","REV_AT_EPOCH":"2149","COUNTRY_CODE":"US","ARG_OF_PERICENTER":"80.6459","GP_ID":"227819344","PERIOD":"95.438","REF_FRAME":"TEME","MEAN_ANOMALY":"279.4646","EPOCH":"2023-03-10T09:32:52.490400","RCS_SIZE":"LARGE"}];
